{"type":"FeatureCollection","features":[{"type":"Feature","properties":{"id":"DE-MV","country":"DE","nazwa":"Mecklenburg-Vorpommern","name":"Mecklenburg-Vorpommern","label_de":"Mecklenburg-Vorpommern","label_pl":"Meklemburgia-Pomorze Przednie","capital":"Schwerin","iso_3166_2":"DE-MV","type":"State"},"geometry":{"type":"MultiPolygon","coordinates":[[[[12.519721031188965,54.484306335449446],[12.655277252197664,54.442638397217024],[12.962499618530387,54.437637329101676],[12.802499771118221,54.408195495605696],[12.636943817138672,54.424861907958984],[12.576943397522314,54.403472900390682],[12.593056678772029,54.383472442626953],[12.435832977295036,54.378749847412337],[12.360277175903263,54.30625152587902],[12.383054733276481,54.279304504394588],[12.363612174987793,54.265972137451172],[12.460276603698901,54.248474121093693],[12.409167289733887,54.27986145019554],[12.535278320312955,54.338748931884879],[12.553055763244743,54.379581451416129],[12.59194469451927,54.357360839843864],[12.669721603393668,54.390693664550838],[12.657499313354776,54.408195495605696],[12.715277671814022,54.404304504394474],[12.704795850456309,54.394683926691719],[12.734723091125772,54.370693206787109],[12.786945343018033,54.396251678466797],[12.810278892517147,54.345138549804801],[13.019721984863338,54.439025878906421],[13.025279045105378,54.396526336670377],[13.093609809875886,54.366806030273665],[13.075832366943359,54.345417022705192],[13.105833053588867,54.281806945800895],[13.286388397216797,54.235137939453466],[13.346388816833894,54.180416107178019],[13.318054199219205,54.159862518310661],[13.415834426880053,54.175140380859602],[13.382498741150357,54.142360687255859],[13.41139030456543,54.156528472900618],[13.456945419311523,54.090694427490234],[13.500834465026912,54.085140228271484],[13.489167213440396,54.123748779297216],[13.696389198303223,54.171806335449389],[13.806944847107275,54.103195190429688],[13.744166374206941,54.029304504394645],[13.914167404174805,53.922359466553189],[13.824722290039233,53.866249084472827],[13.937500953674316,53.908473968505973],[13.905834197998161,53.989860534667969],[13.965278625488622,53.9901390075687],[13.959721565246582,53.934028625488509],[13.983612060546875,53.962638854980696],[14.042499542236726,53.942081451416016],[14.046944618225439,53.996528625488622],[13.974166870117244,54.063751220703352],[13.910832405090275,54.064304351806754],[13.924167633056584,54.035415649414006],[13.862501144409407,53.999305725097713],[13.879165649414119,54.040138244629361],[13.858055114746207,54.048473358154411],[13.769165992737271,54.019027709961108],[13.812499046325684,54.099029541015852],[13.749167442321948,54.159027099609546],[13.803610801696834,54.178470611572493],[13.870834350586051,54.10152816772495],[14.014165878295955,54.054306030273381],[14.221389770507926,53.930137634277287],[14.186329841614167,53.915580749512003],[14.2173366546632,53.865417480469034],[14.038612365722713,53.873474121093864],[13.898612022399959,53.839584350586108],[13.806388854980412,53.858196258544922],[14.038612365722713,53.75513839721674],[14.282500267028809,53.739582061767635],[14.215276718139592,53.702640533447379],[14.273162841796875,53.699306488037109],[14.289348602294979,53.633781433105639],[14.324908256530762,53.618648529052962],[14.302708625793514,53.542610168457202],[14.375618934631348,53.459449768066577],[14.415765762329158,53.329795837402571],[14.319879531860295,53.312622070312557],[14.258330345153865,53.258251190185831],[14.100090026855582,53.261421203613224],[14.235617637634334,53.369480133056811],[14.240408897399959,53.428451538086222],[13.917368888855037,53.420539855957202],[13.879629135131836,53.502731323242188],[13.818076133728425,53.515071868896712],[13.789619445801122,53.556289672851506],[13.78027439117426,53.5120849609375],[13.829074859619368,53.496261596679858],[13.709418296814249,53.479850769042969],[13.624085426330737,53.407287597656364],[13.54931640625,53.39727783203125],[13.526306152343807,53.316101074218864],[13.438720703125227,53.295288085937727],[13.405271530151367,53.243896484375],[13.301878929138354,53.275329589843864],[13.23102092742937,53.213211059570483],[13.183189392089901,53.247390747070369],[13.121039390563908,53.237201690674055],[12.982050895691202,53.157501220703125],[12.945539474487248,53.169181823730526],[12.977380752563704,53.194740295410213],[12.767208099365234,53.182811737060604],[12.742948532104776,53.194301605224666],[12.762390136718977,53.220081329345817],[12.676119804382608,53.224948883056641],[12.670860290527401,53.251071929931811],[12.448179244995117,53.246440887451115],[12.400289535522461,53.299160003662166],[12.264590263366699,53.319358825683707],[12.2345104217531,53.353248596191463],[12.171999931335733,53.335281372070483],[12.05480003356945,53.366352081298885],[12.028409957885799,53.299499511718807],[11.953209877014274,53.26670074462902],[11.897499084472599,53.274688720703352],[11.872070312500057,53.245121002197266],[11.803829193115234,53.249488830566463],[11.834399223327921,53.223121643066406],[11.747279167175236,53.212749481201172],[11.635769844055346,53.239810943603516],[11.554379463196028,53.203231811523551],[11.578739166259766,53.162052154541243],[11.540950775146655,53.121391296386832],[11.398110389709529,53.137432098388729],[11.385419845581282,53.107730865478629],[11.186309814453125,53.135421752929744],[11.198998451232967,53.180042266845817],[11.068689346313477,53.229888916015739],[10.994039535522688,53.334770202636946],[10.919249534606934,53.351211547851676],[10.838748931884822,53.309181213378963],[10.708258628845158,53.379310607910156],[10.597419738769815,53.373649597168026],[10.639378547668628,53.465099334716854],[10.824370384216593,53.517280578613338],[10.823429107666016,53.580280303955249],[10.923410415649471,53.585300445556868],[10.946919441223201,53.677570343017578],[10.757729530334643,53.751579284668082],[10.744208335876522,53.840560913086165],[10.767909049987793,53.881069183349609],[10.87527942657465,53.927841186523381],[10.901128768920898,53.901279449462891],[10.963709831237907,53.910999298095703],[10.887760162353572,53.923870086669979],[10.894718170165959,53.955970764160384],[11.179167747497502,54.015693664551009],[11.258610725403287,53.984859466552962],[11.258610725403287,53.934028625488509],[11.335276603698844,53.958473205566634],[11.454722404480151,53.900417327880973],[11.483610153198242,53.968471527099837],[11.443611145019531,53.960414886474609],[11.444721221923885,53.997081756592024],[11.428055763244686,53.960971832275391],[11.388054847717399,53.965415954589787],[11.378055572510107,53.997360229492415],[11.492501258850325,54.022914886474723],[11.467498779296932,53.974029541015625],[11.490279197693212,53.968193054199446],[11.519166946411303,54.032081604004134],[11.572501182556323,54.032638549804915],[11.625832557678279,54.089584350585881],[11.603609085083121,54.102638244629134],[11.532500267029206,54.049026489257812],[11.525277137756348,54.071804046630859],[11.682498931884766,54.153194427490178],[11.853609085083065,54.145137786865689],[12.087498664856184,54.183193206787109],[12.091944694518986,54.152084350585994],[12.124721527100064,54.150138854980696],[12.142498970031852,54.172359466552962],[12.09527778625494,54.180973052978572],[12.339165687561433,54.29791641235397],[12.519721031188965,54.484306335449446]]],[[[13.429166793823299,54.68458175659174],[13.375832557678279,54.635139465332031],[13.420833587646825,54.577915191650845],[13.679720878601131,54.562637329101562],[13.668609619140682,54.52069473266647],[13.569721221924283,54.46180725097679],[13.60972213745157,54.404861450195426],[13.673610687256257,54.400695800781591],[13.76694393157959,54.341526031494368],[13.71694374084484,54.310138702392692],[13.72527885437006,54.273471832275618],[13.646389007568416,54.296527862549055],[13.704167366028059,54.326248168945426],[13.610832214355923,54.316249847412223],[13.683055877685661,54.349304199218807],[13.61361026763916,54.330696105957372],[13.58083438873291,54.352916717529638],[13.454723358154581,54.335693359375],[13.394721984863736,54.271251678466911],[13.352499008178768,54.269584655762003],[13.41805553436285,54.254859924316634],[13.393610000610408,54.220973968505859],[13.290279388427791,54.251251220703352],[13.321389198303564,54.245140075683821],[13.335277557373104,54.278194427490234],[13.269722938537598,54.253749847412109],[13.199722290039062,54.270137786865575],[13.19416522979742,54.296806335449446],[13.139166831970158,54.282360076904297],[13.18472290039108,54.300971984863281],[13.114721298217717,54.331806182861555],[13.127499580383642,54.371250152587891],[13.261943817139013,54.382915496826399],[13.211388587952058,54.429862976074162],[13.149722099304313,54.429027557373047],[13.26805686950695,54.479305267334439],[13.227499961853368,54.485973358154581],[13.230278015136776,54.510971069335938],[13.158611297607422,54.504028320312614],[13.143611907959041,54.546806335449219],[13.255277633667106,54.552082061767578],[13.305277824402253,54.514026641845817],[13.29749870300293,54.552360534667969],[13.368612289429052,54.579303741455021],[13.338055610656681,54.548751831054688],[13.377498626709098,54.559028625488281],[13.413056373596646,54.493751525878849],[13.506387710571403,54.480972290039006],[13.501943588257177,54.548473358154524],[13.395832061767521,54.572917938232649],[13.370278358459871,54.614582061767521],[13.243055343628214,54.558750152587891],[13.28305625915533,54.64625167846674],[13.160833358765103,54.559028625488281],[13.249724388122615,54.659862518310774],[13.429166793823299,54.68458175659174]]],[[[13.184166908264217,54.494304656982649],[13.226943969726904,54.46875],[13.120834350586392,54.442359924316634],[13.184166908264217,54.494304656982649]]],[[[13.13638877868658,54.605140686035099],[13.158054351807039,54.579303741455021],[13.110833168029785,54.583751678466797],[13.116943359375,54.537639617920149],[13.06360912322998,54.457637786865234],[13.097499847412223,54.590415954589957],[13.13638877868658,54.605140686035099]]]]},"_note":"MV MultiPolygon (mainland + Rügen + 2 wyspy). Realna geometria z propercji administracyjnej (Statistisches Bundesamt-like)."}]}
